#aV2021 11 24  0  0  0.00000000     288 DD+AD WGS84 FIT  NGA
## 2185 259200.00000000   300.00000000 59542 0.0000000000000
+   32     1  2  3  4  5  6  7  8  9 10 11 12 13 14 15 16 17
+         18 19 20 21 22 23 24 25 26 27 28 29 30 31 32  0  0
+          0  0  0  0  0  0  0  0  0  0  0  0  0  0  0  0  0
+          0  0  0  0  0  0  0  0  0  0  0  0  0  0  0  0  0
+          0  0  0  0  0  0  0  0  0  0  0  0  0  0  0  0  0
++         2  2  2  2  2  2  2  2  2  2  2  2  2  2  2  2  2
++         2  2  2  2  2  2  2  2  2  2  2  2  2  2  2  0  0
++         0  0  0  0  0  0  0  0  0  0  0  0  0  0  0  0  0
++         0  0  0  0  0  0  0  0  0  0  0  0  0  0  0  0  0
++         0  0  0  0  0  0  0  0  0  0  0  0  0  0  0  0  0
%c cc cc ccc ccc cccc cccc cccc cccc ccccc ccccc ccccc ccccc
%c cc cc ccc ccc cccc cccc cccc cccc ccccc ccccc ccccc ccccc
%f  0.0000000  0.000000000  0.00000000000  0.000000000000000
%f  0.0000000  0.000000000  0.00000000000  0.000000000000000
%i    0    0    0    0      0      0      0      0         0
%i    0    0    0    0      0      0      0      0         0
/*      NGA, ST. LOUIS,MO.                                  
/*   EPHEMERIS COMPUTED FROM 2 DAYS OF DATA                 
/*   EPOCHA v7 SMOOTHER                                     
/*   G2139 IERS2010 SATIGS SATAPC                           
*  2021 11 24  5 55  0.00000000
P  1  16828.121012   4956.886149  19775.054994    502.350491                    
V  1  10244.686688  23411.037365 -14061.149718     -0.103861                    
P  2 -14808.284746 -21750.796513  -2555.935686   -643.225319                    
V  2    373.951958  -4924.201025  31687.981733     -0.014697                    
P  3  18667.316730  -6009.072620  17760.708207    -21.618013                    
V  3 -11445.373462  19746.703963  18698.623729     -0.103003                    
P  4  26363.335891    235.645799  -3537.835537   -201.073748                    
V  4   4178.908058   3181.532171  31276.033752      0.010149                    
P  5 -12349.355169  -9158.641477 -21817.042784    -62.114730                    
V  5  14533.049664 -23140.363482   1648.525052     -0.012863                    
P  6  -4087.688303 -24123.827079  10324.589964    125.480789                    
V  6   7302.672456  10905.651146  28611.802635      0.094337                    
P  7  10663.748465 -11948.582918 -20735.850496    282.252273                    
V  7  12756.846439  24180.660724  -7727.865476      0.050999                    
P  8  24667.834749   6666.618737  -7854.336975    -45.412233                    
V  8  -9962.826061   1741.330159 -29537.198553     -0.014826                    
P  9  21088.705698  -8681.058102 -13713.411102   -361.434350                    
V  9  17155.662628   3200.495084  24459.515933      0.004211                    
P 10 -10592.352863  23418.490043   6175.989889   -253.104572                    
V 10  -6465.347157   4979.953280 -30876.635141     -0.086086                    
P 11 -11889.512930 -23617.029140  -2620.511235     17.745051                    
V 11   1267.985457  -4129.538407  31527.922959     -0.021654                    
P 12 -18483.062662   3115.460340  18509.396173   -130.857354                    
V 12  13676.716759 -19837.108555  16897.197510     -0.055570                    
P 13 -19181.740443 -13152.256391 -13121.257959    219.247356                    
V 13  16394.253314   1391.708635 -25510.232534      0.057184                    
P 14  11762.191387 -23039.384566   5885.008801    -43.758288                    
V 14   6806.893777  -4297.385398 -30474.709756     -0.066600                    
P 15 -25338.519947  -4402.366658  -7689.692250   -104.183026                    
V 15   9012.092330  -3700.635790 -28774.468676      0.028195                    
P 16   9018.265041  12526.678869 -21814.560045   -429.362841                    
V 16 -17548.029481  20699.094303   5137.385570     -0.063577                    
P 17   8784.269122 -13446.724287  21599.581245    538.071409                    
V 17  26048.703815   3907.283436  -8308.867174      0.054282                    
P 18  -9689.482032  13170.205419 -20914.671031    290.738623                    
V 18 -11878.758670 -23746.793532  -9549.517136     -0.060717                    
P 19  -1120.772170 -14978.997960  21657.656354     83.320516                    
V 19  27673.698554   4637.126264   4419.005818      0.049979                    
P 20  -5403.443834 -19044.345390 -17846.808263    517.968128                    
V 20  11239.802701 -19677.829006  17351.134073     -0.001858                    
P 21  19225.402116  12295.638148  14740.919227    151.902499                    
V 21   7432.930626  15727.942555 -23373.762798      0.010893                    
P 22  16202.595071   2417.745872  21046.429032   -457.450860                    
V 22 -11658.975836  23762.475462   6506.259359      0.090586                    
P 23 -16892.226637  19728.881931  -5354.724143     29.423527                    
V 23   1414.070602  -7139.251328 -30962.264390     -0.043220                    
P 24 -19013.742037  -8410.136926  16475.087964    269.961339                    
V 24  -8945.583677 -19522.726528 -19541.208068      0.033607                    
P 25 -19029.643735  14205.371200  11339.641426    245.398609                    
V 25   6002.204081 -13920.647391  27149.126775      0.058847                    
P 26   -938.231240  22111.876373 -14530.374503    158.408224                    
V 26 -11904.152808  14440.041992  23142.086516      0.037552                    
P 27  17375.927979  12292.881809 -16306.348993   -222.948416                    
V 27 -20228.375810    -50.711981 -21469.915565     -0.045940                    
P 28   6546.922233 -22434.331194  13359.539847    456.709748                    
V 28  11438.956244 -11295.899844 -25406.792927     -0.075535                    
P 29 -24006.572852   3829.752719 -10812.551861   -444.839142                    
V 29 -13221.378771  -3727.334331  28075.501243     -0.052024                    
P 30   3148.903661 -20927.705460 -15834.113442   -493.924471                    
V 30  10905.207907  17429.463767 -21014.568162     -0.031179                    
P 31   5228.924113  24559.531197   7768.879095   -151.702880                    
V 31  -7136.303518  -7895.360966  29805.543252     -0.018949                    
P 32  -3761.807588  15051.226434  21660.751708    -25.957870                    
V 32 -27182.765031  -2063.875552  -3484.703217     -0.049425                    
EOF
